QIANFAN-33              
1 61566U 24185Q   25197.57731808  .00000318  00000+0  22109-3 0  9995
2 61566  88.9807  95.4548 0009182  71.4545 288.7628 13.96391591 48344
QIANFAN-34              
1 61567U 24185R   25197.58323385  .00000336  00000+0  21061-3 0  9990
2 61567  88.9787  95.2144 0008312  79.1541 281.0574 14.02146966 48457
QIANFAN-35              
1 61568U 24185S   25197.62948336  .00000528  00000+0  20831-3 0  9992
2 61568  88.9808  94.3981 0009122  62.7805 297.4318 14.27636830 48900
QIANFAN-36              
1 61569U 24185T   25197.63673970  .00000099  00000+0  12453-3 0  9997
2 61569  88.9798  96.5910 0007945 105.6168 254.5863 13.55541338 47721
QIANFAN-37              
1 62238U 24232B   25197.60356015  .00000140  00000+0  19766-3 0  9990
2 62238  88.9936  56.4250 0002119 103.9853 256.1534 13.50962898 79036
QIANFAN-38              
1 62239U 24232C   25197.62821431  .00000063  00000+0  78836-4 0  9990
2 62239  88.9942  56.3283 0012588 267.0240  92.9470 13.50951857 79096
QIANFAN-39              
1 62240U 24232D   25197.58614371  .00000217  00000+0  85901-4 0  9992
2 62240  88.9937  54.4055 0015022 199.7199 160.3415 14.25223431 80148
QIANFAN-40              
1 62241U 24232E   25197.88334789  .00000054  00000+0  65499-4 0  9997
2 62241  88.9969  55.8451 0011661 275.5268  84.4553 13.50958081 79492
